[{"OBJECT_NAME":"STARLINK-30217","OBJECT_ID":"2023-105W","EPOCH":"2026-03-09T22:00:01.999584","MEAN_MOTION":15.14301134,"ECCENTRICITY":0.00016012,"INCLINATION":42.9998,"RA_OF_ASC_NODE":246.7296,"ARG_OF_PERICENTER":288.118,"MEAN_ANOMALY":170.7222,"EPHEMERIS_TYPE":0,"CLASSIFICATION_TYPE":"U","NORAD_CAT_ID":57450,"ELEMENT_SET_NO":999,"REV_AT_EPOCH":578,"BSTAR":0.0050784754,"MEAN_MOTION_DOT":0.00095699,"MEAN_MOTION_DDOT":0},{"OBJECT_NAME":"SL-3 R\/B","OBJECT_ID":"1982-013B","EPOCH":"2026-03-09T21:53:00.854016","MEAN_MOTION":15.22021316,"ECCENTRICITY":0.00226549,"INCLINATION":81.1762,"RA_OF_ASC_NODE":160.5103,"ARG_OF_PERICENTER":176.767,"MEAN_ANOMALY":183.3713,"EPHEMERIS_TYPE":0,"CLASSIFICATION_TYPE":"U","NORAD_CAT_ID":13068,"ELEMENT_SET_NO":999,"REV_AT_EPOCH":40438,"BSTAR":0.00024250009,"MEAN_MOTION_DOT":5.603e-5,"MEAN_MOTION_DDOT":0}]
